H1 CPF 01  gfz 2022 11 07 13  8112 tandemx   
H2 1003001  6202 36605    2022 11 07 12 59 42 2022 11 12 00 00 42   120 1 1  0 0 0
H9
10 0 59890  63342.000000  0   -5926720.563   -209489.060  -3513934.132
10 0 59890  63462.000000  0   -5422518.006     -7140.735  -4256974.722
10 0 59890  63582.000000  0   -4820528.888    185653.066  -4925433.057
10 0 59890  63702.000000  0   -4131528.695    363924.643  -5507692.088
10 0 59890  63822.000000  0   -3367858.825    523168.114  -5993662.594
10 0 59890  63942.000000  0   -2543196.838    659440.697  -6374946.305
10 0 59890  64062.000000  0   -1672308.330    769449.664  -6644968.813
10 0 59890  64182.000000  0    -770782.325    850623.486  -6799082.608
10 0 59890  64302.000000  0     145243.973    901166.223  -6834636.974
10 0 59890  64422.000000  0    1059365.891    920093.759  -6751018.510
10 0 59890  64542.000000  0    1955198.191    907252.022  -6549663.360
10 0 59890  64662.000000  0    2816663.121    863317.188  -6234035.214
10 0 59890  64782.000000  0    3628274.353    789777.632  -5809571.562
10 0 59890  64902.000000  0    4375412.178    688897.153  -5283598.962
10 0 59890  65022.000000  0    5044587.881    563660.543  -4665218.499
10 0 59890  65142.000000  0    5623693.172    417702.651  -3965159.567
10 0 59890  65262.000000  0    6102227.717    255221.110  -3195603.037
10 0 59890  65382.000000  0    6471500.461     80875.040  -2369977.183
10 0 59890  65502.000000  0    6724801.288   -100328.690  -1502727.407
10 0 59890  65622.000000  0    6857535.387   -283158.956   -609062.383
10 0 59890  65742.000000  0    6867316.828   -462290.135    295316.234
10 0 59890  65862.000000  0    6754019.840   -632435.971   1194496.091
10 0 59890  65982.000000  0    6519784.322   -788483.619   2072642.539
10 0 59890  66102.000000  0    6168975.951   -925624.183   2914287.408
10 0 59890  66222.000000  0    5708099.176  -1039476.437   3704609.680
10 0 59890  66342.000000  0    5145669.868  -1126200.255   4429701.601
10 0 59890  66462.000000  0    4492048.640  -1182598.398   5076817.099
10 0 59890  66582.000000  0    3759239.481  -1206201.702   5634595.559
10 0 59890  66702.000000  0    2960660.019  -1195337.096   6093258.714
10 0 59890  66822.000000  0    2110887.835  -1149178.041   6444776.909
10 0 59890  66942.000000  0    1225389.503  -1067775.797   6683004.251
10 0 59890  67062.000000  0     320234.848   -952070.713   6803780.810
10 0 59890  67182.000000  0    -588196.215   -803883.082   6804999.566
10 0 59890  67302.000000  0   -1483509.160   -625884.733   6686639.756
10 0 59890  67422.000000  0   -2349589.229   -421550.970   6450766.969
10 0 59890  67542.000000  0   -3170890.193   -195093.738   6101499.887
10 0 59890  67662.000000  0   -3932714.592     48622.957   5644944.006
10 0 59890  67782.000000  0   -4621481.017    304183.949   5089091.155
10 0 59890  67902.000000  0   -5224972.625    565738.289   4443685.286
10 0 59890  68022.000000  0   -5732562.388    827127.247   3720056.105
10 0 59890  68142.000000  0   -6135408.918   1082022.450   2930922.746
10 0 59890  68262.000000  0   -6426620.248   1324071.115   2090170.895
10 0 59890  68382.000000  0   -6601380.675   1547044.491   1212605.862
10 0 59890  68502.000000  0   -6657037.880   1744986.562    313686.149
10 0 59890  68622.000000  0   -6593145.611   1912358.931   -590757.634
10 0 59890  68742.000000  0   -6411461.135   2044177.287  -1484810.583
10 0 59890  68862.000000  0   -6115899.052   2136136.902  -2352761.557
10 0 59890  68982.000000  0   -5712442.237   2184724.385  -3179387.064
10 0 59890  69102.000000  0   -5209010.851   2187311.772  -3950223.361
10 0 59890  69222.000000  0   -4615295.109   2142230.626  -4651819.770
10 0 59890  69342.000000  0   -3942557.162   2048825.493  -5271969.403
10 0 59890  69462.000000  0   -3203407.694   1907486.001  -5799913.401
10 0 59890  69582.000000  0   -2411563.494   1719657.376  -6226517.523
10 0 59890  69702.000000  0   -1581588.886   1487829.122  -6544419.894
10 0 59890  69822.000000  0    -728626.934   1215502.252  -6748145.487
10 0 59890  69942.000000  0     131872.791    907136.085  -6834189.883
10 0 59890  70062.000000  0     984426.658    568076.505  -6801072.776
10 0 59890  70182.000000  0    1813789.344    204465.243  -6649363.042
10 0 59890  70302.000000  0    2605220.821   -176868.815  -6381669.181
10 0 59890  70422.000000  0    3344743.232   -568533.758  -6002599.840
10 0 59890  70542.000000  0    4019385.263   -962713.392  -5518691.688
10 0 59890  70662.000000  0    4617409.452  -1351318.053  -4938308.098
10 0 59890  70782.000000  0    5128521.644  -1726146.929  -4271506.679
10 0 59890  70902.000000  0    5544055.990  -2079057.400  -3529875.492
10 0 59890  71022.000000  0    5857132.208  -2402138.294  -2726340.155
10 0 59890  71142.000000  0    6062780.776  -2687883.629  -1874943.407
10 0 59890  71262.000000  0    6158031.916  -2929362.359   -990600.966
10 0 59890  71382.000000  0    6141966.577  -3120380.000    -88838.392
10 0 59890  71502.000000  0    6015726.827  -3255628.052    814486.393
10 0 59890  71622.000000  0    5782485.732  -3330817.539   1703470.966
10 0 59890  71742.000000  0    5447374.496  -3342791.649   2562457.545
10 0 59890  71862.000000  0    5017369.425  -3289615.313   3376317.101
10 0 59890  71982.000000  0    4501143.299  -3170638.690   4130722.811
10 0 59890  72102.000000  0    3908885.527  -2986534.025   4812405.740
10 0 59890  72222.000000  0    3252093.915  -2739306.116   5409391.062
10 0 59890  72342.000000  0    2543343.114  -2432273.635   5911206.594
10 0 59890  72462.000000  0    1796037.835  -2070023.935   6309062.216
10 0 59890  72582.000000  0    1024154.670  -1658342.765   6595998.291
10 0 59890  72702.000000  0     241977.646  -1204119.693   6767001.374
10 0 59890  72822.000000  0    -536166.967   -715230.977   6819086.083
10 0 59890  72942.000000  0   -1296172.249   -200402.344   6751343.180
10 0 59890  73062.000000  0   -2024405.205    330946.436   6564954.421
10 0 59890  73182.000000  0   -2707950.471    868873.335   6263173.413
10 0 59890  73302.000000  0   -3334839.828   1403099.093   5851272.685
10 0 59890  73422.000000  0   -3894264.192   1923202.759   5336457.653
10 0 59890  73542.000000  0   -4376765.112   2418825.159   4727747.356
10 0 59890  73662.000000  0   -4774401.565   2879876.686   4035821.572
10 0 59890  73782.000000  0   -5080887.051   3296743.790   3272836.221
10 0 59890  73902.000000  0   -5291695.295   3660490.883   2452211.654
10 0 59890  74022.000000  0   -5404132.076   3963053.407   1588395.719
10 0 59890  74142.000000  0   -5417370.939   4197416.613    696604.401
10 0 59890  74262.000000  0   -5332449.852   4357774.362   -207453.954
10 0 59890  74382.000000  0   -5152230.509   4439664.805  -1107863.555
10 0 59890  74502.000000  0   -4881321.278   4440079.907  -1988789.754
10 0 59890  74622.000000  0   -4525963.424   4357544.428  -2834768.171
10 0 59890  74742.000000  0   -4093885.570   4192162.249  -3630981.511
10 0 59890  74862.000000  0   -3594130.613   3945630.697  -4363520.896
10 0 59890  74982.000000  0   -3036860.519   3621223.150  -5019625.925
10 0 59890  75102.000000  0   -2433145.328   3223741.143  -5587899.692
10 0 59890  75222.000000  0   -1794740.890   2759438.653  -6058498.506
10 0 59890  75342.000000  0   -1133857.881   2235918.095  -6423292.372
10 0 59890  75462.000000  0    -462929.016   1662001.810  -6675993.141
10 0 59890  75582.000000  0     205621.332   1047582.549  -6812252.067
10 0 59890  75702.000000  0     859601.271    403454.692  -6829726.622
10 0 59890  75822.000000  0    1487269.138   -258871.613  -6728117.727
10 0 59890  75942.000000  0    2077539.522   -927371.838  -6509172.825
10 0 59890  76062.000000  0    2620174.267  -1589719.465  -6176659.131
10 0 59890  76182.000000  0    3105957.901  -2233507.452  -5736305.701
10 0 59890  76302.000000  0    3526854.526  -2846476.350  -5195716.443
10 0 59890  76422.000000  0    3876144.926  -3416748.044  -4564249.889
10 0 59890  76542.000000  0    4148537.303  -3933056.366  -3852866.333
10 0 59890  76662.000000  0    4340252.315  -4384971.534  -3073948.048
10 0 59890  76782.000000  0    4449081.165  -4763115.381  -2241091.263
10 0 59890  76902.000000  0    4474413.462  -5059361.378  -1368872.221
10 0 59890  77022.000000  0    4417232.408  -5267014.421   -472590.930
10 0 59890  77142.000000  0    4280077.646  -5380963.719    432001.932
10 0 59890  77262.000000  0    4066976.484  -5397806.064   1328988.712
10 0 59890  77382.000000  0    3783344.565  -5315934.929   2202574.543
10 0 59890  77502.000000  0    3435857.373  -5135592.352   3037374.014
10 0 59890  77622.000000  0    3032297.799  -4858884.682   3818689.399
10 0 59890  77742.000000  0    2581383.032  -4489759.459   4532774.900
10 0 59890  77862.000000  0    2092575.840  -4033945.552   5167081.264
10 0 59890  77982.000000  0    1575884.377  -3498858.171   5710476.054
10 0 59890  78102.000000  0    1041655.109  -2893470.824   6153436.653
10 0 59890  78222.000000  0     500363.733  -2228158.082   6488211.273
10 0 59890  78342.000000  0     -37590.922  -1514513.151   6708947.686
10 0 59890  78462.000000  0    -562085.754   -765143.641   6811789.916
10 0 59890  78582.000000  0   -1063462.703      6552.934   6794942.084
10 0 59890  78702.000000  0   -1532705.917    786628.777   6658697.530
10 0 59890  78822.000000  0   -1961603.397   1560837.292   6405433.765
10 0 59890  78942.000000  0   -2342891.098   2314892.332   6039573.606
10 0 59890  79062.000000  0   -2670376.914   3034731.906   5567512.738
10 0 59890  79182.000000  0   -2939042.975   3706782.111   4997514.286
10 0 59890  79302.000000  0   -3145125.444   4318216.995   4339570.689
10 0 59890  79422.000000  0   -3286168.568   4857209.307   3605233.265
10 0 59890  79542.000000  0   -3361052.155   5313166.775   2807411.747
10 0 59890  79662.000000  0   -3369991.143   5676947.529   1960146.413
10 0 59890  79782.000000  0   -3314507.749   5941048.838   1078357.617
99
